start=new Date('2022-07-09T00:00:00.000Z').valueOf();
sats=[{"MEAN_MOTION":"15.06384376","APOAPSIS":"548.349","OBJECT_NAME":"STARLINK-1543","MEAN_ELEMENT_THEORY":"SGP4","BSTAR":"0.00001943500000","OBJECT_ID":"2020-055AC","TLE_LINE1":"1 46053U 20055AC  22189.81350747  .00000008  00000-0  19435-4 0  9991","SITE":"AFETR","SEMIMAJOR_AXIS":"6925.396","TIME_SYSTEM":"UTC","RCS_SIZE":"LARGE","NORAD_CAT_ID":"46053","REV_AT_EPOCH":"10708","LAUNCH_DATE":"2020-08-07","ARG_OF_PERICENTER":"80.2392","COUNTRY_CODE":"US","REF_FRAME":"TEME","DECAY_DATE":null,"CENTER_NAME":"EARTH","PERIAPSIS":"546.174","MEAN_MOTION_DDOT":"0.0000000000000","ECCENTRICITY":"0.00015700","INCLINATION":"53.0574","OBJECT_TYPE":"PAYLOAD","TLE_LINE2":"2 46053  53.0574  11.5588 0001570  80.2392 279.8774 15.06384376107082","FILE":"3510087","ELEMENT_SET_NO":"999","MEAN_ANOMALY":"279.8774","CLASSIFICATION_TYPE":"U","RA_OF_ASC_NODE":"11.5588","GP_ID":"207691974","MEAN_MOTION_DOT":"0.00000008","EPOCH":"2022-07-08T19:31:27.045408","PERIOD":"95.593","EPHEMERIS_TYPE":"0"},{"MEAN_ELEMENT_THEORY":"SGP4","BSTAR":"0.00004427800000","TLE_LINE1":"1 46054U 20055AD  22189.82086054  .00000378  00000-0  44278-4 0  9993","OBJECT_ID":"2020-055AD","SITE":"AFETR","MEAN_MOTION":"15.06395303","APOAPSIS":"548.254","OBJECT_NAME":"STARLINK-1548","LAUNCH_DATE":"2020-08-07","ARG_OF_PERICENTER":"93.1359","COUNTRY_CODE":"US","TIME_SYSTEM":"UTC","SEMIMAJOR_AXIS":"6925.363","RCS_SIZE":"LARGE","NORAD_CAT_ID":"46054","REV_AT_EPOCH":"10708","MEAN_MOTION_DDOT":"0.0000000000000","ECCENTRICITY":"0.00014810","INCLINATION":"53.0572","OBJECT_TYPE":"PAYLOAD","TLE_LINE2":"2 46054  53.0572  11.5304 0001481  93.1359 266.9800 15.06395303107083","REF_FRAME":"TEME","DECAY_DATE":null,"CENTER_NAME":"EARTH","PERIAPSIS":"546.202","RA_OF_ASC_NODE":"11.5304","CLASSIFICATION_TYPE":"U","GP_ID":"207693225","MEAN_MOTION_DOT":"0.00000378","EPOCH":"2022-07-08T19:42:02.350656","PERIOD":"95.592","EPHEMERIS_TYPE":"0","FILE":"3510087","ELEMENT_SET_NO":"999","MEAN_ANOMALY":"266.9800"},{"ARG_OF_PERICENTER":"79.7906","LAUNCH_DATE":"2020-08-07","COUNTRY_CODE":"US","TIME_SYSTEM":"UTC","SEMIMAJOR_AXIS":"6925.394","NORAD_CAT_ID":"46055","RCS_SIZE":"LARGE","REV_AT_EPOCH":"10708","MEAN_ELEMENT_THEORY":"SGP4","BSTAR":"-0.00013499000000","OBJECT_ID":"2020-055AE","TLE_LINE1":"1 46055U 20055AE  22189.80612169 -.00002291  00000-0 -13499-3 0  9992","SITE":"AFETR","MEAN_MOTION":"15.06385304","APOAPSIS":"548.088","OBJECT_NAME":"STARLINK-1554","MEAN_MOTION_DOT":"-0.00002291","GP_ID":"207692975","CLASSIFICATION_TYPE":"U","RA_OF_ASC_NODE":"11.5923","EPOCH":"2022-07-08T19:20:48.914016","PERIOD":"95.593","EPHEMERIS_TYPE":"0","FILE":"3510087","ELEMENT_SET_NO":"999","MEAN_ANOMALY":"280.3218","ECCENTRICITY":"0.00011980","MEAN_MOTION_DDOT":"0.0000000000000","INCLINATION":"53.0539","OBJECT_TYPE":"PAYLOAD","TLE_LINE2":"2 46055  53.0539  11.5923 0001198  79.7906 280.3218 15.06385304107080","REF_FRAME":"TEME","DECAY_DATE":null,"PERIAPSIS":"546.429","CENTER_NAME":"EARTH"},{"FILE":"3510087","ELEMENT_SET_NO":"999","MEAN_ANOMALY":"297.0008","MEAN_MOTION_DOT":"0.00002178","GP_ID":"207692224","CLASSIFICATION_TYPE":"U","RA_OF_ASC_NODE":"11.4859","EPOCH":"2022-07-08T19:51:16.284384","PERIOD":"95.592","EPHEMERIS_TYPE":"0","REF_FRAME":"TEME","DECAY_DATE":null,"PERIAPSIS":"546.150","CENTER_NAME":"EARTH","ECCENTRICITY":"0.00014940","MEAN_MOTION_DDOT":"0.0000000000000","INCLINATION":"53.0562","OBJECT_TYPE":"PAYLOAD","TLE_LINE2":"2 46056  53.0562  11.4859 0001494  63.1134 297.0008 15.06409374107090","SEMIMAJOR_AXIS":"6925.320","TIME_SYSTEM":"UTC","NORAD_CAT_ID":"46056","RCS_SIZE":"LARGE","REV_AT_EPOCH":"10709","ARG_OF_PERICENTER":"63.1134","LAUNCH_DATE":"2020-08-07","COUNTRY_CODE":"US","MEAN_MOTION":"15.06409374","APOAPSIS":"548.219","OBJECT_NAME":"STARLINK-1561","MEAN_ELEMENT_THEORY":"SGP4","BSTAR":"0.00016505000000","OBJECT_ID":"2020-055AF","TLE_LINE1":"1 46056U 20055AF  22189.82727181  .00002178  00000-0  16505-3 0  9999","SITE":"AFETR"},{"MEAN_ELEMENT_THEORY":"SGP4","BSTAR":"-0.00001480900000","TLE_LINE1":"1 46058U 20055AH  22189.77292258 -.00000502  00000-0 -14809-4 0  9994","OBJECT_ID":"2020-055AH","SITE":"AFETR","MEAN_MOTION":"15.06431601","APOAPSIS":"548.344","OBJECT_NAME":"STARLINK-1564","ARG_OF_PERICENTER":"89.6994","LAUNCH_DATE":"2020-08-07","COUNTRY_CODE":"US","TIME_SYSTEM":"UTC","SEMIMAJOR_AXIS":"6925.252","RCS_SIZE":"LARGE","NORAD_CAT_ID":"46058","REV_AT_EPOCH":"10707","ECCENTRICITY":"0.00017720","MEAN_MOTION_DDOT":"0.0000000000000","INCLINATION":"53.0562","OBJECT_TYPE":"PAYLOAD","TLE_LINE2":"2 46058  53.0562  11.7312 0001772  89.6994 270.4198 15.06431601107076","REF_FRAME":"TEME","DECAY_DATE":null,"PERIAPSIS":"545.890","CENTER_NAME":"EARTH","GP_ID":"207692474","MEAN_MOTION_DOT":"-0.00000502","RA_OF_ASC_NODE":"11.7312","CLASSIFICATION_TYPE":"U","EPOCH":"2022-07-08T18:33:00.510912","PERIOD":"95.590","EPHEMERIS_TYPE":"0","FILE":"3510087","MEAN_ANOMALY":"270.4198","ELEMENT_SET_NO":"999"},{"ARG_OF_PERICENTER":"84.4625","LAUNCH_DATE":"2020-08-07","COUNTRY_CODE":"US","RCS_SIZE":"LARGE","NORAD_CAT_ID":"46059","REV_AT_EPOCH":"10703","TIME_SYSTEM":"UTC","SEMIMAJOR_AXIS":"6925.304","OBJECT_ID":"2020-055AJ","TLE_LINE1":"1 46059U 20055AJ  22189.78030805  .00004303  00000-0  30744-3 0  9990","SITE":"AFETR","MEAN_ELEMENT_THEORY":"SGP4","BSTAR":"0.00030744000000","OBJECT_NAME":"STARLINK-1570","MEAN_MOTION":"15.06414487","APOAPSIS":"547.924","PERIOD":"95.591","EPHEMERIS_TYPE":"0","MEAN_MOTION_DOT":"0.00004303","GP_ID":"207692725","CLASSIFICATION_TYPE":"U","RA_OF_ASC_NODE":"11.7130","EPOCH":"2022-07-08T18:43:38.615520","MEAN_ANOMALY":"275.6488","ELEMENT_SET_NO":"999","FILE":"3510087","OBJECT_TYPE":"PAYLOAD","TLE_LINE2":"2 46059  53.0566  11.7130 0001090  84.4625 275.6488 15.06414487107034","ECCENTRICITY":"0.00010900","MEAN_MOTION_DDOT":"0.0000000000000","INCLINATION":"53.0566","DECAY_DATE":null,"PERIAPSIS":"546.414","CENTER_NAME":"EARTH","REF_FRAME":"TEME"},{"PERIAPSIS":"546.119","CENTER_NAME":"EARTH","DECAY_DATE":null,"REF_FRAME":"TEME","TLE_LINE2":"2 46060  53.0552  11.7256 0001473  81.7878 278.3278 15.06424231107041","OBJECT_TYPE":"PAYLOAD","INCLINATION":"53.0552","ECCENTRICITY":"0.00014730","MEAN_MOTION_DDOT":"0.0000000000000","ELEMENT_SET_NO":"999","MEAN_ANOMALY":"278.3278","FILE":"3510087","EPHEMERIS_TYPE":"0","PERIOD":"95.591","EPOCH":"2022-07-08T18:38:19.901472","MEAN_MOTION_DOT":"0.00004537","GP_ID":"207693476","CLASSIFICATION_TYPE":"U","RA_OF_ASC_NODE":"11.7256","OBJECT_NAME":"STARLINK-1572","APOAPSIS":"548.159","MEAN_MOTION":"15.06424231","SITE":"AFETR","TLE_LINE1":"1 46060U 20055AK  22189.77661923  .00004537  00000-0  32306-3 0  9997","OBJECT_ID":"2020-055AK","BSTAR":"0.00032306000000","MEAN_ELEMENT_THEORY":"SGP4","REV_AT_EPOCH":"10704","RCS_SIZE":"LARGE","NORAD_CAT_ID":"46060","SEMIMAJOR_AXIS":"6925.274","TIME_SYSTEM":"UTC","COUNTRY_CODE":"US","ARG_OF_PERICENTER":"81.7878","LAUNCH_DATE":"2020-08-07"},{"PERIOD":"95.590","EPHEMERIS_TYPE":"0","RA_OF_ASC_NODE":"11.7634","CLASSIFICATION_TYPE":"U","GP_ID":"207691725","MEAN_MOTION_DOT":"0.00009035","EPOCH":"2022-07-08T18:27:42.686784","ELEMENT_SET_NO":"999","MEAN_ANOMALY":"288.2373","FILE":"3510087","OBJECT_TYPE":"PAYLOAD","TLE_LINE2":"2 46061  53.0549  11.7634 0001593  71.8789 288.2373 15.06428088107075","MEAN_MOTION_DDOT":"0.0000000000000","ECCENTRICITY":"0.00015930","INCLINATION":"53.0549","DECAY_DATE":null,"CENTER_NAME":"EARTH","PERIAPSIS":"546.024","REF_FRAME":"TEME","LAUNCH_DATE":"2020-08-07","ARG_OF_PERICENTER":"71.8789","COUNTRY_CODE":"US","NORAD_CAT_ID":"46061","RCS_SIZE":"LARGE","REV_AT_EPOCH":"10707","TIME_SYSTEM":"UTC","SEMIMAJOR_AXIS":"6925.262","TLE_LINE1":"1 46061U 20055AL  22189.76924406  .00009035  00000-0  62421-3 0  9994","OBJECT_ID":"2020-055AL","SITE":"AFETR","MEAN_ELEMENT_THEORY":"SGP4","BSTAR":"0.00062421000000","OBJECT_NAME":"STARLINK-1573","MEAN_MOTION":"15.06428088","APOAPSIS":"548.231"},{"TLE_LINE2":"2 46062  53.0553  11.6016 0001486  63.9977 296.1164 15.06411041107040","OBJECT_TYPE":"PAYLOAD","INCLINATION":"53.0553","MEAN_MOTION_DDOT":"0.0000000000000","ECCENTRICITY":"0.00014860","CENTER_NAME":"EARTH","PERIAPSIS":"546.151","DECAY_DATE":null,"REF_FRAME":"TEME","EPHEMERIS_TYPE":"0","PERIOD":"95.591","EPOCH":"2022-07-08T19:15:28.702656","CLASSIFICATION_TYPE":"U","RA_OF_ASC_NODE":"11.6016","MEAN_MOTION_DOT":"0.00001035","GP_ID":"207691975","ELEMENT_SET_NO":"999","MEAN_ANOMALY":"296.1164","FILE":"3510087","SITE":"AFETR","OBJECT_ID":"2020-055AM","TLE_LINE1":"1 46062U 20055AM  22189.80241554  .00001035  00000-0  88326-4 0  9991","BSTAR":"0.00008832600000","MEAN_ELEMENT_THEORY":"SGP4","OBJECT_NAME":"STARLINK-1574","APOAPSIS":"548.209","MEAN_MOTION":"15.06411041","COUNTRY_CODE":"US","LAUNCH_DATE":"2020-08-07","ARG_OF_PERICENTER":"63.9977","REV_AT_EPOCH":"10704","RCS_SIZE":"LARGE","NORAD_CAT_ID":"46062","SEMIMAJOR_AXIS":"6925.315","TIME_SYSTEM":"UTC"},{"ELEMENT_SET_NO":"999","MEAN_ANOMALY":"264.9301","FILE":"3510087","EPHEMERIS_TYPE":"0","PERIOD":"95.591","EPOCH":"2022-07-08T19:10:10.853472","RA_OF_ASC_NODE":"11.6367","CLASSIFICATION_TYPE":"U","GP_ID":"207693226","MEAN_MOTION_DOT":"0.00003491","CENTER_NAME":"EARTH","PERIAPSIS":"546.147","DECAY_DATE":null,"REF_FRAME":"TEME","TLE_LINE2":"2 46063  53.0547  11.6367 0001451  95.1854 264.9301 15.06420140107075","OBJECT_TYPE":"PAYLOAD","INCLINATION":"53.0547","MEAN_MOTION_DDOT":"0.0000000000000","ECCENTRICITY":"0.00014510","REV_AT_EPOCH":"10707","NORAD_CAT_ID":"46063","RCS_SIZE":"LARGE","SEMIMAJOR_AXIS":"6925.287","TIME_SYSTEM":"UTC","COUNTRY_CODE":"US","LAUNCH_DATE":"2020-08-07","ARG_OF_PERICENTER":"95.1854","OBJECT_NAME":"STARLINK-1577","APOAPSIS":"548.157","MEAN_MOTION":"15.06420140","SITE":"AFETR","TLE_LINE1":"1 46063U 20055AN  22189.79873673  .00003491  00000-0  25299-3 0  9990","OBJECT_ID":"2020-055AN","BSTAR":"0.00025299000000","MEAN_ELEMENT_THEORY":"SGP4"}];
